NORAD_CAT_ID,OBJECT_NAME,OBJECT_TYPE,EPOCH,MEAN_MOTION,ECCENTRICITY,INCLINATION,RA_OF_ASC_NODE,ARG_OF_PERICENTER,MEAN_ANOMALY,BSTAR,MEAN_MOTION_DOT,MEAN_MOTION_DDOT,TLE_LINE0,TLE_LINE1,TLE_LINE2,SEMIMAJOR_AXIS,PERIOD,APOGEE,PERIGEE,DECAYED
55279.0,STARLINK-5323,PAYLOAD,2024-07-24 02:42:17,14.98325318,0.0004347,69.9986,101.0825,242.9001,117.1715,-2.6763e-05,-4.13e-06,0.0,0 STARLINK-5323,1 55279U 23010L   24206.11270190 -.00000413  00000-0 -26763-4 0  9997,2 55279  69.9986 101.0825 0004347 242.9001 117.1715 14.98325318 83558,6950.207,96.107,575.094,569.051,0.0
55279.0,STARLINK-5323,PAYLOAD,2024-07-24 17:07:30,14.98334454,0.0003373,69.999,99.5664,264.0871,95.9903,-6.3815e-05,-8.55e-06,0.0,0 STARLINK-5323,1 55279U 23010L   24206.71354329 -.00000855  00000-0 -63815-4 0  9999,2 55279  69.9990  99.5664 0003373 264.0871  95.9903 14.98334454 83961,6950.179,96.107,574.388,569.7,0.0
55279.0,STARLINK-5323,PAYLOAD,2024-07-25 02:44:17,14.98340617,0.0002883,70.0002,98.5582,270.6563,89.4266,6.3202e-05,6.61e-06,0.0,0 STARLINK-5323,1 55279U 23010L   24207.11409606  .00000661  00000-0  63202-4 0  9996,2 55279  70.0002  98.5582 0002883 270.6563  89.4266 14.98340617 83702,6950.16,96.106,574.029,570.021,0.0
55279.0,STARLINK-5323,PAYLOAD,2024-07-25 15:33:22,14.98327871,0.0002873,70.0006,97.2129,282.0684,78.0153,0.00016377,1.862e-05,0.0,0 STARLINK-5323,1 55279U 23010L   24207.64818149  .00001862  00000-0  16377-3 0  9994,2 55279  70.0006  97.2129 0002873 282.0684  78.0153 14.98327871 83783,6950.199,96.107,574.061,570.068,0.0
55279.0,STARLINK-5323,PAYLOAD,2024-07-25 21:57:55,14.98334367,0.0002847,70.001,96.5361,280.1194,79.9644,-3.2649e-05,-4.83e-06,0.0,0 STARLINK-5323,1 55279U 23010L   24207.91522328 -.00000483  00000-0 -32649-4 0  9996,2 55279  70.0010  96.5361 0002847 280.1194  79.9644 14.98334367 84148,6950.179,96.107,574.023,570.066,0.0
55279.0,STARLINK-5323,PAYLOAD,2024-07-26 02:46:19,14.98330522,0.0002891,70.0006,96.0323,279.8932,80.1901,6.0285e-05,6.26e-06,0.0,0 STARLINK-5323,1 55279U 23010L   24208.11550273  .00000626  00000-0  60285-4 0  9993,2 55279  70.0006  96.0323 0002891 279.8932  80.1901 14.98330522 84172,6950.191,96.107,574.066,570.047,0.0
55279.0,STARLINK-5323,PAYLOAD,2024-07-27 22:01:57,14.98326589,0.0003056,69.9997,91.489,274.0203,86.0607,-1.0351e-05,-2.17e-06,0.0,0 STARLINK-5323,1 55279U 23010L   24209.91802219 -.00000217  00000-0 -10351-4 0  9999,2 55279  69.9997  91.4890 0003056 274.0203  86.0607 14.98326589 84444,6950.203,96.107,574.192,569.944,0.0
55279.0,STARLINK-5323,PAYLOAD,2024-07-28 01:14:13,14.98323389,0.0003381,69.9991,91.1504,279.1281,80.9495,-7.5483e-05,-9.93e-06,0.0,0 STARLINK-5323,1 55279U 23010L   24210.05154660 -.00000993  00000-0 -75483-4 0  9994,2 55279  69.9991  91.1504 0003381 279.1281  80.9495 14.98323389 84140,6950.213,96.107,574.428,569.728,0.0
55279.0,STARLINK-5323,PAYLOAD,2024-07-28 20:27:49,14.98322471,0.0003167,69.9993,89.1314,267.1269,92.9528,0.0001004,1.105e-05,0.0,0 STARLINK-5323,1 55279U 23010L   24210.85266110  .00001105  00000-0  10040-3 0  9997,2 55279  69.9993  89.1314 0003167 267.1269  92.9528 14.98322471 84267,6950.216,96.107,574.282,569.88,0.0
55279.0,STARLINK-5323,PAYLOAD,2024-07-28 22:03:57,14.98323551,0.0003147,69.9994,88.9634,266.8487,93.2312,0.00011358,1.262e-05,0.0,0 STARLINK-5323,1 55279U 23010L   24210.91942039  .00001262  00000-0  11358-3 0  9992,2 55279  69.9994  88.9634 0003147 266.8487  93.2312 14.98323551 84597,6950.213,96.107,574.265,569.891,0.0
55279.0,STARLINK-5323,PAYLOAD,2024-07-29 09:16:54,14.98328044,0.0003103,69.9993,87.7847,267.0807,92.9997,0.00014897,1.685e-05,0.0,0 STARLINK-5323,1 55279U 23010L   24211.38673803  .00001685  00000-0  14897-3 0  9994,2 55279  69.9993  87.7847 0003103 267.0807  92.9997 14.98328044 84665,6950.199,96.107,574.221,569.907,0.0
55279.0,STARLINK-5323,PAYLOAD,2024-07-29 20:29:50,14.98328743,0.0003098,69.9992,86.6065,267.0393,93.0412,0.00013981,1.575e-05,0.0,0 STARLINK-5323,1 55279U 23010L   24211.85405882  .00001575  00000-0  13981-3 0  9997,2 55279  69.9992  86.6065 0003098 267.0393  93.0412 14.98328743 84410,6950.197,96.107,574.215,569.909,0.0
55279.0,STARLINK-5323,PAYLOAD,2024-07-29 22:05:58,14.98329288,0.0003093,69.9992,86.4381,267.0412,93.0393,0.0001439,1.624e-05,0.0,0 STARLINK-5323,1 55279U 23010L   24211.92081848  .00001624  00000-0  14390-3 0  9997,2 55279  69.9992  86.4381 0003093 267.0412  93.0393 14.98329288 84745,6950.195,96.107,574.21,569.91,0.0
55279.0,STARLINK-5323,PAYLOAD,2024-07-30 09:18:55,14.98329614,0.0003055,69.9992,85.2594,268.0562,92.0247,0.00014222,1.604e-05,0.0,0 STARLINK-5323,1 55279U 23010L   24212.38813809  .00001604  00000-0  14222-3 0  9990,2 55279  69.9992  85.2594 0003055 268.0562  92.0247 14.98329614 84811,6950.194,96.107,574.182,569.936,0.0
55279.0,STARLINK-5323,PAYLOAD,2024-07-30 22:07:59,14.98335655,0.0002786,69.9999,83.9131,269.9703,90.1137,7.6824e-05,8.24e-06,0.0,0 STARLINK-5323,1 55279U 23010L   24212.92221610  .00000824  00000-0  76824-4 0  9993,2 55279  69.9999  83.9131 0002786 269.9703  90.1137 14.98335655 84894,6950.175,96.107,573.977,570.104,0.0
55279.0,STARLINK-5323,PAYLOAD,2024-07-31 01:20:15,14.98336397,0.0002985,69.9994,83.577,269.7051,90.3766,7.1791e-05,7.64e-06,0.0,0 STARLINK-5323,1 55279U 23010L   24213.05573507  .00000764  00000-0  71791-4 0  9994,2 55279  69.9994  83.5770 0002985 269.7051  90.3766 14.98336397 84590,6950.173,96.107,574.113,569.963,0.0
55279.0,STARLINK-5323,PAYLOAD,2024-07-31 09:20:56,14.98344341,0.0002562,70.0001,82.7347,271.5495,88.537,-0.00028252,-3.463e-05,0.0,0 STARLINK-5323,1 55279U 23010L   24213.38953745 -.00003463  00000-0 -28252-3 0  9990,2 55279  70.0001  82.7347 0002562 271.5495  88.5370 14.98344341 84966,6950.149,96.106,573.794,570.233,0.0
55279.0,STARLINK-5323,PAYLOAD,2024-07-31 20:33:53,14.98327985,0.0002825,69.9999,81.5566,269.9043,90.1792,-7.7714e-05,-1.02e-05,0.0,0 STARLINK-5323,1 55279U 23010L   24213.85686375 -.00001020  00000-0 -77714-4 0  9999,2 55279  69.9999  81.5566 0002825 269.9043  90.1792 14.98327985 84716,6950.199,96.107,574.028,570.101,0.0
55279.0,STARLINK-5323,PAYLOAD,2024-07-31 22:10:01,14.98328499,0.0002721,70.0002,81.3886,273.3125,86.7723,-7.1275e-05,-9.43e-06,0.0,0 STARLINK-5323,1 55279U 23010L   24213.92362363 -.00000943  00000-0 -71275-4 0  9994,2 55279  70.0002  81.3886 0002721 273.3125  86.7723 14.98328499 85045,6950.198,96.107,573.954,570.171,0.0
55279.0,STARLINK-5323,PAYLOAD,2024-08-01 01:22:17,14.98325178,0.0002928,69.9997,81.0521,274.031,86.0514,-2.4235e-05,-3.82e-06,0.0,0 STARLINK-5323,1 55279U 23010L   24214.05714446 -.00000382  00000-0 -24235-4 0  9993,2 55279  69.9997  81.0521 0002928 274.0310  86.0514 14.98325178 85065,6950.208,96.107,574.108,570.038,0.0
55279.0,STARLINK-5323,PAYLOAD,2024-08-01 20:35:53,14.98336212,0.0002949,69.9996,79.0324,272.5809,87.5012,6.6554e-05,7.01e-06,0.0,0 STARLINK-5323,1 55279U 23010L   24214.85825370  .00000701  00000-0  66554-4 0  9993,2 55279  69.9996  79.0324 0002949 272.5809  87.5012 14.98336212 84868,6950.174,96.107,574.088,569.989,0.0
55279.0,STARLINK-5323,PAYLOAD,2024-08-01 22:12:00,14.98341127,0.0002919,69.9995,78.864,273.2217,86.8608,3.8501e-05,3.67e-06,0.0,0 STARLINK-5323,1 55279U 23010L   24214.92501101  .00000367  00000-0  38501-4 0  9993,2 55279  69.9995  78.8640 0002919 273.2217  86.8608 14.98341127 85194,6950.158,96.106,574.052,569.995,0.0
55279.0,STARLINK-5323,PAYLOAD,2024-08-02 14:13:22,14.98322907,0.0003017,69.9994,77.1825,270.7375,89.3438,0.00014189,1.6e-05,0.0,0 STARLINK-5323,1 55279U 23010L   24215.59261822  .00001600  00000-0  14189-3 0  9996,2 55279  69.9994  77.1825 0003017 270.7375  89.3438 14.98322907 85292,6950.215,96.107,574.177,569.983,0.0
55279.0,STARLINK-5323,PAYLOAD,2024-08-02 20:37:54,14.98322042,0.0002858,70.0004,76.5078,269.7836,90.2996,8.8555e-05,9.64e-06,0.0,0 STARLINK-5323,1 55279U 23010L   24215.85966141  .00000964  00000-0  88555-4 0  9992,2 55279  70.0004  76.5078 0002858 269.7836  90.2996 14.98322042 85012,6950.218,96.108,574.069,570.096,0.0
55279.0,STARLINK-5323,PAYLOAD,2024-08-02 22:14:02,14.98321894,0.000297,69.9999,76.3397,272.2496,87.8323,4.7809e-05,4.77e-06,0.0,0 STARLINK-5323,1 55279U 23010L   24215.92642281  .00000477  00000-0  47809-4 0  9992,2 55279  69.9999  76.3397 0002970 272.2496  87.8323 14.98321894 85346,6950.218,96.108,574.147,570.019,0.0
55279.0,STARLINK-5323,PAYLOAD,2024-08-03 07:50:51,14.98329719,0.0002791,70.0005,75.3302,267.5984,92.4855,-1.2554e-05,-2.43e-06,0.0,0 STARLINK-5323,1 55279U 23010L   24216.32698035 -.00000243  00000-0 -12554-4 0  9997,2 55279  70.0005  75.3302 0002791 267.5984  92.4855 14.98329719 85405,6950.194,96.107,573.999,570.119,0.0
55279.0,STARLINK-5323,PAYLOAD,2024-08-03 20:39:55,14.98335548,0.0002803,70.0001,73.9832,264.5314,95.5526,-1.5703e-05,-2.8e-06,0.0,0 STARLINK-5323,1 55279U 23010L   24216.86105569 -.00000280  00000-0 -15703-4 0  9991,2 55279  70.0001  73.9832 0002803 264.5314  95.5526 14.98335548 85160,6950.176,96.107,573.989,570.093,0.0
55279.0,STARLINK-5323,PAYLOAD,2024-08-03 22:16:03,14.98337199,0.0002864,69.9999,73.8146,266.7387,93.3445,-2.5313e-05,-3.95e-06,0.0,0 STARLINK-5323,1 55279U 23010L   24216.92781465 -.00000395  00000-0 -25313-4 0  9998,2 55279  69.9999  73.8146 0002864 266.7387  93.3445 14.98337199 85497,6950.171,96.107,574.026,570.045,0.0
55279.0,STARLINK-5323,PAYLOAD,2024-08-04 14:17:23,14.98327498,0.0002942,69.9997,72.1311,267.4863,92.5959,7.9472e-05,8.55e-06,0.0,0 STARLINK-5323,1 55279U 23010L   24217.59541658  .00000855  00000-0  79472-4 0  9994,2 55279  69.9997  72.1311 0002942 267.4863  92.5959 14.98327498 85598,6950.201,96.107,574.11,570.021,0.0
55279.0,STARLINK-5323,PAYLOAD,2024-08-04 20:41:56,14.98331443,0.0002958,69.9995,71.4576,267.5207,92.5614,9.8506e-05,1.083e-05,0.0,0 STARLINK-5323,1 55279U 23010L   24217.86245399  .00001083  00000-0  98506-4 0  9990,2 55279  69.9995  71.4576 0002958 267.5207  92.5614 14.98331443 85314,6950.188,96.107,574.109,569.998,0.0
